[{"OBJECT_NAME":"STARLINK-34658","OBJECT_ID":"2025-150N","EPOCH":"2026-03-09T13:29:10.549824","MEAN_MOTION":14.98316249,"ECCENTRICITY":0.0002895,"INCLINATION":70.0025,"RA_OF_ASC_NODE":134.9375,"ARG_OF_PERICENTER":266.4041,"MEAN_ANOMALY":93.6787,"EPHEMERIS_TYPE":0,"CLASSIFICATION_TYPE":"U","NORAD_CAT_ID":64802,"ELEMENT_SET_NO":999,"REV_AT_EPOCH":3649,"BSTAR":0.00065653,"MEAN_MOTION_DOT":7.747e-5,"MEAN_MOTION_DDOT":0},{"OBJECT_NAME":"COSMOS 2242","OBJECT_ID":"1993-024A","EPOCH":"2026-03-09T23:17:07.942848","MEAN_MOTION":14.96550444,"ECCENTRICITY":0.00151707,"INCLINATION":82.5157,"RA_OF_ASC_NODE":266.4481,"ARG_OF_PERICENTER":307.8411,"MEAN_ANOMALY":52.1437,"EPHEMERIS_TYPE":0,"CLASSIFICATION_TYPE":"U","NORAD_CAT_ID":22626,"ELEMENT_SET_NO":999,"REV_AT_EPOCH":78043,"BSTAR":0.00021609887,"MEAN_MOTION_DOT":2.488e-5,"MEAN_MOTION_DDOT":0}]
